{"type": "FeatureCollection", "features": [ {"type": "Feature", "properties": {"norad_id": 66847, "name": "STARLINK-36061", "group": "last-30-days", "lat": -53.25357039953375, "lon": 151.21730189130918, "alt_km": 409.0171272043517, "timestamp": "2025-12-19T06:59:42.651229+00:00", "meta": {"OBJECT_NAME": "STARLINK-36061", "OBJECT_ID": "2025-280AC", "EPOCH": "2025-12-18T22:00:00.999936", "MEAN_MOTION": 15.55792841, "ECCENTRICITY": 0.00038553, "INCLINATION": 69.9999, "RA_OF_ASC_NODE": 181.4453, "ARG_OF_PERICENTER": 270.9995, "MEAN_ANOMALY": 93.1518, "EPHEMERIS_TYPE": 0, "CLASSIFICATION_TYPE": "U", "NORAD_CAT_ID": 66847, "ELEMENT_SET_NO": 999, "REV_AT_EPOCH": 384, "BSTAR": -0.032745742, "MEAN_MOTION_DOT": -0.01992735, "MEAN_MOTION_DDOT": 0}, "tle": {"line1": "1 66847U 25280AC  25352.91667824 -.01992735  00000+0 -32746-1 0  9998", "line2": "2 66847  69.9999 181.4453 0003855 270.9995  93.1518 15.55792841  3841"}}, "geometry": {"type": "Point", "coordinates": [151.21730189130918, -53.25357039953375]}}, {"type": "Feature", "properties": {"norad_id": 66848, "name": "STARLINK-36091", "group": "last-30-days", "lat": 42.726109396983674, "lon": 164.57514835434804, "alt_km": 338.9652048020871, "timestamp": "2025-12-19T06:59:42.651239+00:00", "meta": {"OBJECT_NAME": "STARLINK-36091", "OBJECT_ID": "2025-281A", "EPOCH": "2025-12-18T22:00:00.999936", "MEAN_MOTION": 15.75081081, "ECCENTRICITY": 0.00018199, "INCLINATION": 43.001, "RA_OF_ASC_NODE": 84.4789, "ARG_OF_PERICENTER": 268.1461, "MEAN_ANOMALY": 208.5415, "EPHEMERIS_TYPE": 0, "CLASSIFICATION_TYPE": "U", "NORAD_CAT_ID": 66848, "ELEMENT_SET_NO": 999, "REV_AT_EPOCH": 238, "BSTAR": -0.00044893726, "MEAN_MOTION_DOT": -0.00069006, "MEAN_MOTION_DDOT": 0}, "tle": {"line1": "1 66848U 25281A   25352.91667824 -.00069006  00000+0 -44894-3 0  9994", "line2": "2 66848  43.0010  84.4789 0001819 268.1461 208.5415 15.75081081  2383"}}, "geometry": {"type": "Point", "coordinates": [164.57514835434804, 42.726109396983674]}}, {"type": "Feature", "properties": {"norad_id": 66849, "name": "STARLINK-36102", "group": "last-30-days", "lat": 42.870534610232106, "lon": 167.18461436145353, "alt_km": 338.9061621600549, "timestamp": "2025-12-19T06:59:42.651252+00:00", "meta": {"OBJECT_NAME": "STARLINK-36102", "OBJECT_ID": "2025-281B", "EPOCH": "2025-12-18T22:00:00.999936", "MEAN_MOTION": 15.7508334, "ECCENTRICITY": 0.00017853, "INCLINATION": 43.001, "RA_OF_ASC_NODE": 84.474, "ARG_OF_PERICENTER": 263.6033, "MEAN_ANOMALY": 215.0012, "EPHEMERIS_TYPE": 0, "CLASSIFICATION_TYPE": "U", "NORAD_CAT_ID": 66849, "ELEMENT_SET_NO": 999, "REV_AT_EPOCH": 238, "BSTAR": -0.00040561456, "MEAN_MOTION_DOT": -0.00062447, "MEAN_MOTION_DDOT": 0}, "tle": {"line1": "1 66849U 25281B   25352.91667824 -.00062447  00000+0 -40561-3 0  9994", "line2": "2 66849  43.0010  84.4740 0001785 263.6033 215.0012 15.75083340  2384"}}, "geometry": {"type": "Point", "coordinates": [167.18461436145353, 42.870534610232106]}}, {"type": "Feature", "properties": {"norad_id": 66850, "name": "STARLINK-36105", "group": "last-30-days", "lat": 42.95453562263378, "lon": 169.7700042915837, "alt_km": 338.7921378012752, "timestamp": "2025-12-19T06:59:42.651262+00:00", "meta": {"OBJECT_NAME": "STARLINK-36105", "OBJECT_ID": "2025-281C", "EPOCH": "2025-12-18T22:00:00.999936", "MEAN_MOTION": 15.75068961, "ECCENTRICITY": 0.00017606, "INCLINATION": 43.001, "RA_OF_ASC_NODE": 84.4688, "ARG_OF_PERICENTER": 256.9436, "MEAN_ANOMALY": 223.555, "EPHEMERIS_TYPE": 0, "CLASSIFICATION_TYPE": "U", "NORAD_CAT_ID": 66850, "ELEMENT_SET_NO": 999, "REV_AT_EPOCH": 238, "BSTAR": -8.7193228e-05, "MEAN_MOTION_DOT": -0.00013867, "MEAN_MOTION_DDOT": 0}, "tle": {"line1": "1 66850U 25281C   25352.91667824 -.00013867  00000+0 -87193-4 0  9991", "line2": "2 66850  43.0010  84.4688 0001760 256.9436 223.5550 15.75068961  2385"}}, "geometry": {"type": "Point", "coordinates": [169.7700042915837, 42.95453562263378]}}, {"type": "Feature", "properties": {"norad_id": 66851, "name": "STARLINK-36094", "group": "last-30-days", "lat": 42.979901066903096, "lon": 172.41645154475063, "alt_km": 338.9157062444656, "timestamp": "2025-12-19T06:59:42.651273+00:00", "meta": {"OBJECT_NAME": "STARLINK-36094", "OBJECT_ID": "2025-281D", "EPOCH": "2025-12-18T22:00:00.999936", "MEAN_MOTION": 15.75091909, "ECCENTRICITY": 0.00018034, "INCLINATION": 43.001, "RA_OF_ASC_NODE": 84.4638, "ARG_OF_PERICENTER": 268.5198, "MEAN_ANOMALY": 213.9153, "EPHEMERIS_TYPE": 0, "CLASSIFICATION_TYPE": "U", "NORAD_CAT_ID": 66851, "ELEMENT_SET_NO": 999, "REV_AT_EPOCH": 238, "BSTAR": -0.00051573558, "MEAN_MOTION_DOT": -0.00079145, "MEAN_MOTION_DDOT": 0}, "tle": {"line1": "1 66851U 25281D   25352.91667824 -.00079145  00000+0 -51574-3 0  9996", "line2": "2 66851  43.0010  84.4638 0001803 268.5198 213.9153 15.75091909  2383"}}, "geometry": {"type": "Point", "coordinates": [172.41645154475063, 42.979901066903096]}}, {"type": "Feature", "properties": {"norad_id": 66852, "name": "STARLINK-35992", "group": "last-30-days", "lat": 42.945231539396644, "lon": 175.00348530728317, "alt_km": 338.74852885130167, "timestamp": "2025-12-19T06:59:42.651285+00:00", "meta": {"OBJECT_NAME": "STARLINK-35992", "OBJECT_ID": "2025-281E", "EPOCH": "2025-12-18T22:00:00.999936", "MEAN_MOTION": 15.75026574, "ECCENTRICITY": 0.00018578, "INCLINATION": 43.0007, "RA_OF_ASC_NODE": 84.4592, "ARG_OF_PERICENTER": 277.0938, "MEAN_ANOMALY": 207.2361, "EPHEMERIS_TYPE": 0, "CLASSIFICATION_TYPE": "U", "NORAD_CAT_ID": 66852, "ELEMENT_SET_NO": 999, "REV_AT_EPOCH": 238, "BSTAR": 0.00057847924, "MEAN_MOTION_DOT": 0.0008928, "MEAN_MOTION_DDOT": 0}, "tle": {"line1": "1 66852U 25281E   25352.91667824  .00089280  00000+0  57848-3 0  9996", "line2": "2 66852  43.0007  84.4592 0001857 277.0938 207.2361 15.75026574  2388"}}, "geometry": {"type": "Point", "coordinates": [175.00348530728317, 42.945231539396644]}}, {"type": "Feature", "properties": {"norad_id": 66853, "name": "STARLINK-35986", "group": "last-30-days", "lat": 42.849375642139, "lon": 177.65084516649083, "alt_km": 338.64040860404384, "timestamp": "2025-12-19T06:59:42.651295+00:00", "meta": {"OBJECT_NAME": "STARLINK-35986", "OBJECT_ID": "2025-281F", "EPOCH": "2025-12-18T22:00:00.999936", "MEAN_MOTION": 15.75103001, "ECCENTRICITY": 0.0001442, "INCLINATION": 43.0007, "RA_OF_ASC_NODE": 84.4544, "ARG_OF_PERICENTER": 281.3137, "MEAN_ANOMALY": 204.9391, "EPHEMERIS_TYPE": 0, "CLASSIFICATION_TYPE": "U", "NORAD_CAT_ID": 66853, "ELEMENT_SET_NO": 999, "REV_AT_EPOCH": 238, "BSTAR": -0.00049827502, "MEAN_MOTION_DOT": -0.00076538, "MEAN_MOTION_DDOT": 0}, "tle": {"line1": "1 66853U 25281F   25352.91667824 -.00076538  00000+0 -49828-3 0  9990", "line2": "2 66853  43.0007  84.4544 0001442 281.3137 204.9391 15.75103001  2383"}}, "geometry": {"type": "Point", "coordinates": [177.65084516649083, 42.849375642139]}}, {"type": "Feature", "properties": {"norad_id": 66854, "name": "STARLINK-36087", "group": "last-30-days", "lat": 42.69919124712295, "lon": -179.80269815491172, "alt_km": 338.73216868076815, "timestamp": "2025-12-19T06:59:42.651305+00:00", "meta": {"OBJECT_NAME": "STARLINK-36087", "OBJECT_ID": "2025-281G", "EPOCH": "2025-12-18T22:00:00.999936", "MEAN_MOTION": 15.75025438, "ECCENTRICITY": 0.00018619, "INCLINATION": 43.001, "RA_OF_ASC_NODE": 84.4494, "ARG_OF_PERICENTER": 285.3302, "MEAN_ANOMALY": 202.8086, "EPHEMERIS_TYPE": 0, "CLASSIFICATION_TYPE": "U", "NORAD_CAT_ID": 66854, "ELEMENT_SET_NO": 999, "REV_AT_EPOCH": 238, "BSTAR": 0.00070330646, "MEAN_MOTION_DOT": 0.00108897, "MEAN_MOTION_DDOT": 0}, "tle": {"line1": "1 66854U 25281G   25352.91667824  .00108897  00000+0  70331-3 0  9996", "line2": "2 66854  43.0010  84.4494 0001861 285.3302 202.8086 15.75025438  2380"}}, "geometry": {"type": "Point", "coordinates": [-179.80269815491172, 42.69919124712295]}}, {"type": "Feature", "properties": {"norad_id": 66855, "name": "STARLINK-36090", "group": "last-30-days", "lat": 42.483521060007355, "lon": -177.17421622729913, "alt_km": 338.58656354982577, "timestamp": "2025-12-19T06:59:42.651318+00:00", "meta": {"OBJECT_NAME": "STARLINK-36090", "OBJECT_ID": "2025-281H", "EPOCH": "2025-12-18T22:00:00.999936", "MEAN_MOTION": 15.75098089, "ECCENTRICITY": 0.0001182, "INCLINATION": 43.0011, "RA_OF_ASC_NODE": 84.4449, "ARG_OF_PERICENTER": 269.2325, "MEAN_ANOMALY": 220.8641, "EPHEMERIS_TYPE": 0, "CLASSIFICATION_TYPE": "U", "NORAD_CAT_ID": 66855, "ELEMENT_SET_NO": 999, "REV_AT_EPOCH": 226, "BSTAR": -0.00061512263, "MEAN_MOTION_DOT": -0.00094156, "MEAN_MOTION_DDOT": 0}, "tle": {"line1": "1 66855U 25281H   25352.91667824 -.00094156  00000+0 -61512-3 0  9992", "line2": "2 66855  43.0011  84.4449 0001182 269.2325 220.8641 15.75098089  2260"}}, "geometry": {"type": "Point", "coordinates": [-177.17421622729913, 42.483521060007355]}}, {"type": "Feature", "properties": {"norad_id": 66856, "name": "STARLINK-36072", "group": "last-30-days", "lat": 42.21249484346449, "lon": -174.60888861620626, "alt_km": 339.0912708472133, "timestamp": "2025-12-19T06:59:42.651330+00:00", "meta": {"OBJECT_NAME": "STARLINK-36072", "OBJECT_ID": "2025-281J", "EPOCH": "2025-12-18T22:00:00.999936", "MEAN_MOTION": 15.75090696, "ECCENTRICITY": 0.00018797, "INCLINATION": 43.0008, "RA_OF_ASC_NODE": 84.4393, "ARG_OF_PERICENTER": 270.3142, "MEAN_ANOMALY": 221.7051, "EPHEMERIS_TYPE": 0, "CLASSIFICATION_TYPE": "U", "NORAD_CAT_ID": 66856, "ELEMENT_SET_NO": 999, "REV_AT_EPOCH": 238, "BSTAR": -0.00055131293, "MEAN_MOTION_DOT": -0.00084516, "MEAN_MOTION_DDOT": 0}, "tle": {"line1": "1 66856U 25281J   25352.91667824 -.00084516  00000+0 -55131-3 0  9992", "line2": "2 66856  43.0008  84.4393 0001879 270.3142 221.7051 15.75090696  2382"}}, "geometry": {"type": "Point", "coordinates": [-174.60888861620626, 42.21249484346449]}}]}